STARLINK-31510          
1 59575U 24076M   26068.17949132  .00002728  00000+0  10858-3 0  9991
2 59575  43.0034   8.5180 0000642 282.3748  77.7032 15.27587823106466
FLOCK 4G-2              
1 62661U 25009BE  26068.66207492  .00013752  00000+0  51068-3 0  9995
2 62661  97.4044 151.2221 0003181 329.2677  30.8376 15.27675260121321
